GLOBALSTAR M035         
1 25851U 99037A   25158.79350388 -.00000109  00000+0 -17106-2 0  9991
2 25851  51.9957  75.9127 0014120 328.3677  64.2237 11.04538808 95224
GLOBALSTAR M032         
1 25852U 99037B   25158.59581344 -.00000070  00000+0 -11619-3 0  9999
2 25852  51.9954 262.2154 0012653 150.2674 209.8847 11.19061035133711
GLOBALSTAR M051         
1 25853U 99037C   25159.12839780 -.00000075  00000+0 -75848-4 0  9990
2 25853  51.9808  62.7439 0000308 135.0548 225.0287 11.42205166131373
GLOBALSTAR M030         
1 25854U 99037D   25158.65178266 -.00000105  00000+0 -63448-3 0  9999
2 25854  51.9865 230.6089 0002839  31.1113 328.9871 11.55109134148944
GLOBALSTAR M048         
1 25872U 99041A   25158.84769848 -.00000056  00000+0  37460-3 0  9996
2 25872  51.9395 358.0954 0013459 165.3499 207.3789 11.33857118123922
GLOBALSTAR M026         
1 25873U 99041B   25158.87465132 -.00000032  00000+0  11756-2 0  9992
2 25873  51.9968 193.7928 0002460 253.0220 277.4439 11.06841504147457
GLOBALSTAR M043         
1 25874U 99041C   25158.61570980 -.00000088  00000+0 -59537-3 0  9995
2 25874  51.9387 105.9072 0013671 297.4213 236.0382 11.25694354121795
GLOBALSTAR M028         
1 25875U 99041D   25158.88195588 -.00000041  00000+0  38564-3 0  9997
2 25875  51.9607 220.8133 0063278  51.6195 309.0328 12.50583597189018
